ORBCOMM FM05 [-]        
1 25117U 97084F   23361.25873935  .00002811  00000+0  89325-3 0  9992
2 25117  45.0163  62.2124 0001060 344.5408  15.5410 14.41919986363807
ORBCOMM FM06 [+]        
1 25118U 97084G   23360.62478378  .00003111  00000+0  98478-3 0  9998
2 25118  45.0152  65.4142 0000566 292.1026 226.7465 14.41888174363715
ORBCOMM FM07 [-]        
1 25119U 97084H   23361.27168598  .00002781  00000+0  88602-3 0  9991
2 25119  45.0150  62.7965 0001985 346.3903  13.6893 14.41831663363796
ORBCOMM FM03 [-]        
1 25158U 98007B   23361.26830908  .00002217  00000+0  86985-3 0  9996
2 25158 107.9735 112.9472 0045437 109.4795 251.1260 14.31639060347126
ORBCOMM FM04 [+]        
1 25159U 98007C   23361.14142775  .00001977  00000+0  77848-3 0  9992
2 25159 107.9721 115.5341 0040887 107.6592 252.9017 14.31899569347249
ORBCOMM FM17 [-]        
1 25413U 98046A   23360.88176532  .00001486  00000+0  59303-3 0  9997
2 25413  44.9953 272.9842 0003054  16.3001 343.7943 14.32647409326080
ORBCOMM FM18 [-]        
1 25414U 98046B   23360.71154277  .00001758  00000+0  65745-3 0  9991
2 25414  44.9920 203.6718 0004708  91.8425 268.2961 14.35243362326807
ORBCOMM FM19 [+]        
1 25415U 98046C   23360.68425243  .00001778  00000+0  66657-3 0  9997
2 25415  44.9930 205.0334 0003512  87.2062  25.6211 14.35095924326764
